STARLINK-32145          
1 60154U 24120V   24270.27998477  .00003239  00000+0  90930-4 0  9994
2 60154  53.1578 264.4824 0001196  79.1935 280.9204 15.39620303 15203
STARLINK-32137          
1 60155U 24120W   24270.42375584 -.00001340  00000+0 -23539-4 0  9994
2 60155  53.1588 263.9568 0001167  94.4914 265.6224 15.39605138 15176
STARLINK-32048          
1 60156U 24120X   24270.36347434 -.00000522  00000+0 -30610-5 0  9991
2 60156  53.1588 264.2914 0001547  92.1656 267.9526 15.39619080 15177
STARLINK-32129          
1 60157U 24120Y   24270.37277615 -.00002375  00000+0 -49451-4 0  9996
2 60157  53.1598 264.3509 0001372  96.5942 263.5219 15.39599230 15335
STARLINK-11168 [DTC]    
1 60183U 24124A   24270.20565303 -.00000312  00000+0  22845-5 0  9992
2 60183  53.1584 251.3416 0001258  93.9739 266.1423 15.69702035 14573
STARLINK-11187 [DTC]    
1 60184U 24124B   24270.32808433  .00013436  00000+0  11556-3 0  9995
2 60184  53.1560 250.6859 0001662  79.5540 280.5665 15.69714145 14573
STARLINK-11180 [DTC]    
1 60185U 24124C   24270.19583519  .00027526  00000+0  23117-3 0  9997
2 60185  53.1562 251.2823 0001498 116.3746 243.7425 15.69724240 14560
STARLINK-11197 [DTC]    
1 60186U 24124D   24270.19092680  .00001594  00000+0  18029-4 0  9996
2 60186  53.1570 251.2477 0001797  86.4346 273.6877 15.69699230 14552
STARLINK-11194 [DTC]    
1 60187U 24124E   24270.24969414  .00046544  00000+0  38659-3 0  9995
2 60187  53.1563 250.9025 0001238  92.4908 267.6252 15.69727909 14578
STARLINK-11189 [DTC]    
1 60188U 24124F   24270.24488925  .00065430  00000+0  53964-3 0  9990
2 60188  53.1564 251.6034 0000858  77.3575 282.7539 15.69756150 14551
STARLINK-11183 [DTC]    
1 60189U 24124G   24270.36733087  .00046653  00000+0  38791-3 0  9993
2 60189  53.1562 250.9437 0001462  85.1828 274.9356 15.69701040 14355
STARLINK-11179 [DTC]    
1 60190U 24124H   24270.36244478  .00087880  00000+0  72332-3 0  9992
2 60190  53.1567 250.9091 0000686 104.6207 255.4887 15.69684709 14369
STARLINK-11175 [DTC]    
1 60191U 24124J   24270.35751734  .00013517  00000+0  11636-3 0  9996
2 60191  53.1564 250.8758 0001695 129.3848 230.7320 15.69685533 14579
STARLINK-11173 [DTC]    
1 60192U 24124K   24270.16160046  .00004579  00000+0  42640-4 0  9994
2 60192  53.1567 251.7848 0001787 125.8357 234.2827 15.69708129 14546
STARLINK-11172 [DTC]    
1 60193U 24124L   24270.34770646  .00032003  00000+0  26808-3 0  9998
2 60193  53.1569 250.8099 0001292 108.3832 251.7326 15.69701913 14511
STARLINK-11152 [DTC]    
1 60194U 24124M   24270.34279835  .00133526  00000+0  10879-2 0  9995
2 60194  53.1566 250.7763 0001518  89.4811 270.6381 15.69741646 14588
STARLINK-11193 [DTC]    
1 60195U 24124N   24270.21055410  .00059265  00000+0  49020-3 0  9991
2 60195  53.1571 251.3727 0001549 108.4063 251.7124 15.69726663 14562
STARLINK-31869          
1 60196U 24124P   24270.40618643 -.00001826  00000+0 -35699-4 0  9996
2 60196  53.1583 266.3935 0001175  87.0414 273.0725 15.39605349 14265
STARLINK-32023          
1 60197U 24124Q   24270.37161141 -.00001305  00000+0 -24026-4 0  9993
2 60197  53.1588 266.1745 0001511  93.9519 266.1658 15.38046517 14267
STARLINK-32046          
1 60198U 24124R   24270.37366938  .00001163  00000+0  39043-4 0  9990
2 60198  53.1586 266.1866 0001282 106.1687 253.9459 15.39628329 14269
STARLINK-32049          
1 60199U 24124S   24270.39225027 -.00000048  00000+0  87873-5 0  9993
2 60199  53.1582 266.3040 0001322  82.0841 278.0314 15.39613173 14260
STARLINK-32002          
1 60200U 24124T   24270.31805471 -.00001788  00000+0 -34740-4 0  9992
2 60200  53.1581 266.5516 0001330  82.0035 278.1121 15.39602422 14314
STARLINK-32020          
1 60201U 24124U   24270.41537097 -.00002680  00000+0 -57032-4 0  9991
2 60201  53.1573 265.7347 0001462  77.9288 282.1881 15.39615378 14398
STARLINK-32041          
1 60202U 24124V   24270.36870564 -.00001953  00000+0 -38870-4 0  9996
2 60202  53.1572 266.1545 0001352 102.6514 257.4642 15.39603673 14372
STARLINK-32138          
1 60255U 24131A   24269.60677653  .00012277  00000+0  31642-3 0  9999
2 60255  53.1579 357.2422 0001486  77.2502 282.8669 15.39619561 10454
STARLINK-32212          
1 60256U 24131B   24270.51861652 -.00019675  00000+0 -57669-3 0  9994
2 60256  53.1581 354.4001 0001291 104.5336 255.5810 15.34181512 10633
STARLINK-32166          
1 60257U 24131C   24270.39042056 -.00006382  00000+0 -14983-3 0  9993
2 60257  53.1591 353.5982 0001853  94.0994 266.0223 15.39589332 10643
STARLINK-32200          
1 60258U 24131D   24270.47388407  .00002056  00000+0  61402-4 0  9997
2 60258  53.1585 353.4125 0001800 132.1943 227.9215 15.39606524 10645
STARLINK-32207          
1 60259U 24131E   24270.46745908 -.00004438  00000+0 -12110-3 0  9999
2 60259  53.1575 354.7937 0000881  94.8077 265.3026 15.34198854 10610
STARLINK-32125          
1 60260U 24131F   24270.43209321  .00047467  00000+0  11924-2 0  9990
2 60260  53.1589 353.1486 0001392  64.7533 295.3616 15.39539690 10665
STARLINK-32160          
1 60261U 24131G   24270.60822788  .00007132  00000+0  18789-3 0  9990
2 60261  53.1615 352.1138 0001307 119.5891 240.5244 15.39655580 10735
STARLINK-32163          
1 60262U 24131H   24270.63611508  .00015645  00000+0  40061-3 0  9996
2 60262  53.1580 352.2879 0001360  97.3495 262.7665 15.39597013 10674
STARLINK-32148          
1 60263U 24131J   24270.48273426 -.00000165  00000+0  58653-5 0  9993
2 60263  53.1618 352.7445 0002223 137.9206 222.1970 15.39607495 10700
STARLINK-32121          
1 60264U 24131K   24270.46923482 -.00011167  00000+0 -26967-3 0  9992
2 60264  53.1578 353.3822 0001334 117.1474 242.9667 15.39611577 10698
STARLINK-32120          
1 60265U 24131L   24270.42278628  .00049158  00000+0  12287-2 0  9992
2 60265  53.1589 353.0861 0001955 140.3392 219.7756 15.39677089 10700
STARLINK-32205          
1 60266U 24131M   24270.44416207  .00034055  00000+0  10204-2 0  9999
2 60266  53.1584 354.6442 0001413 110.9903 249.1251 15.34215489 10623
STARLINK-32158          
1 60267U 24131N   24270.48306837  .00010242  00000+0  26584-3 0  9992
2 60267  53.1589 352.7508 0001478 109.7242 250.3922 15.39600972 10544
STARLINK-32167          
1 60268U 24131P   24269.61127733 -.00003108  00000+0 -81386-4 0  9999
2 60268  53.1581 358.6943 0001307 143.5921 216.5170 15.34211055 10494
STARLINK-32144          
1 60269U 24131Q   24270.49235531  .00017624  00000+0  44961-3 0  9997
2 60269  53.1582 352.8106 0001469 100.8204 259.2966 15.39616472 10711
STARLINK-32211          
1 60270U 24131R   24270.46247243 -.00006422  00000+0 -18017-3 0  9998
2 60270  53.1573 354.7610 0001597  79.3260 280.7922 15.34211066 10624
STARLINK-32164          
1 60271U 24131S   24270.51094296 -.00008294  00000+0 -19779-3 0  9998
2 60271  53.1579 352.9288 0001341 142.5712 217.5387 15.39590340 10144
STARLINK-32128          
1 60272U 24131T   24270.39970425 -.00004764  00000+0 -10931-3 0  9991
2 60272  53.1608 353.6594 0000803  58.7595 301.3488 15.39589021 10648
STARLINK-32206          
1 60273U 24131U   24270.38367130  .00005895  00000+0  18656-3 0  9990
2 60273  53.1583 354.9776 0001214  90.7690 269.3452 15.34213060 10619
STARLINK-32155          
1 60274U 24131V   24270.39503317 -.00003313  00000+0 -72874-4 0  9999
2 60274  53.1578 353.6274 0001134  45.1978 314.9119 15.39622106 10579
STARLINK-32152          
1 60275U 24131W   24270.43673384  .00003876  00000+0  10683-3 0  9998
2 60275  53.1577 353.1724 0000863 113.6993 246.4102 15.39615849 10588
STARLINK-32154          
1 60276U 24131X   24270.61720678  .00009253  00000+0  24111-3 0  9994
2 60276  53.1586 352.1643 0002099 148.4063 211.7068 15.39609033 10679
STARLINK-32135          
1 60277U 24131Y   24270.47808811  .00006658  00000+0  17638-3 0  9997
2 60277  53.1590 352.7182 0001539 134.7992 225.3138 15.39604665 10659
STARLINK-32156          
1 60278U 24132A   24270.58335648 -.00020553  00000+0 -68377-3 0  9992
2 60278  53.1590 350.0036 0000674  49.2005 286.3604 15.30198240 10555
STARLINK-32010          
1 60279U 24132B   24270.91667824 -.00014557  00000+0 -48035-3 0  9990
2 60279  53.1600 348.8131 0001815  97.7035  94.7137 15.30196759 10597
STARLINK-32118          
1 60280U 24132C   24270.91667824 -.00003094  00000+0 -92396-4 0  9996
2 60280  53.1593 348.3845 0001268  91.4765 316.1511 15.30197640 10609
STARLINK-32038          
1 60281U 24132D   24270.91667824 -.00035053  00000+0 -11765-2 0  9996
2 60281  53.1594 348.4074 0000703 115.8222 280.1945 15.30212461 10608
STARLINK-32113          
1 60282U 24132E   24270.91667824 -.00010126  00000+0 -33020-3 0  9990
2 60282  53.1593 348.4203 0001144  62.5003 327.6967 15.30203271 10607
STARLINK-32037          
1 60283U 24132F   24270.58335648  .00017907  00000+0  61589-3 0  9993
2 60283  53.1588 350.1856 0001569 104.7979 137.7147 15.30166736 10545
STARLINK-32123          
1 60284U 24132G   24270.58335648 -.00018563  00000+0 -61671-3 0  9997
2 60284  53.1587 350.0846 0001033 106.7413 188.1077 15.30171792 10544
STARLINK-32122          
1 60285U 24132H   24270.25001157  .00003538  00000+0  13153-3 0  9993
2 60285  53.1590 351.6655 0001210 116.8317 123.2512 15.30195206 10490
STARLINK-31656          
1 60286U 24132J   24270.91667824 -.00105548  00000+0 -35976-2 0  9998
2 60286  53.1599 348.3152 0001275  86.8172 355.8453 15.30239999 10609
STARLINK-32114          
1 60287U 24132K   24270.75538776 -.00000838  00000+0 -16196-4 0  9995
2 60287  53.1608 349.6043 0001336 130.0770 230.0348 15.30161546 10562
STARLINK-31997          
1 60288U 24132L   24270.25001157  .00089031  00000+0  29918-2 0  9993
2 60288  53.1600 351.3069 0001382  94.6532 325.7617 15.30096804 10492
STARLINK-32000          
1 60289U 24132M   24270.58335648  .00007971  00000+0  28128-3 0  9991
2 60289  53.1588 350.2223 0001542 114.2285 110.8386 15.30164888 10540
